GLOBAL-2                
1 43812U 18099BG  26199.11335046  .00001792  00000+0  11761-3 0  9992
2 43812  97.3547 234.3409 0007238  59.1710 301.0231 15.08835756416574
GLOBAL-4                
1 44499U 19054E   26199.01767303  .00040123  00000+0  36492-3 0  9999
2 44499  45.0054  58.1115 0005761 214.7212 145.3311 15.67306952385197
GLOBAL-9                
1 47971U 21023G   26199.05104749  .00012816  00000+0  24893-3 0  9999
2 47971  44.9813  76.9018 0003825 188.7781 171.3043 15.47684743299725
GLOBAL-14               
1 49469U 21106A   26199.11766726  .00015825  00000+0  25989-3 0  9991
2 49469  42.0037 107.0635 0018212 243.2531 116.6450 15.51923000262937
GLOBAL-12               
1 49772U 21115BA  26198.80436348  .00015673  00000+0  23260-3 0  9998
2 49772  53.1935 257.1125 0002950  74.0317 286.1020 15.55427236260667
GLOBAL-13               
1 49773U 21115BB  26198.49116196  .00010540  00000+0  21243-3 0  9997
2 49773  53.1963 270.4046 0000385 151.9456 208.1573 15.47163605260450
GLOBAL-17               
1 49949U 21120A   26199.08473791  .00015279  00000+0  23536-3 0  9992
2 49949  41.9929 224.9553 0013477 113.4400 246.7864 15.53807811259705
GLOBAL-16               
1 49950U 21120B   26199.27009934  .00012915  00000+0  21675-3 0  9995
2 49950  41.9932 228.1831 0011464 104.6131 255.5985 15.51567509259676
GLOBAL-18               
1 52196U 22034B   26199.01021176  .00013860  00000+0  27519-3 0  9993
2 52196  52.9816 109.2095 0004597  32.3908 327.7379 15.47302188241736
GLOBAL-19               
1 55982U 23041B   26198.87175460  .00008117  00000+0  21372-3 0  9997
2 55982  42.0021  22.8522 0009957 235.1182 124.8722 15.38726760186650
GLOBAL-5                
1 55983U 23041C   26198.90440506  .00008365  00000+0  21998-3 0  9997
2 55983  42.0016  22.1868 0008928 230.8493 129.1554 15.38741423186660
